{
  "type": "FeatureCollection",
  "features": [
    {
      "type": "Feature",
      "properties": {
        "norad_id": 35052,
        "name": "IRIDIUM 33 DEB",
        "group": "iridium-33-debris",
        "lat": 3.281056928193486,
        "lon": 18.57787030435049,
        "alt_km": 762.3338334864511,
        "timestamp": "2025-12-17T15:50:10.166401+00:00",
        "meta_object_name": "IRIDIUM 33 DEB",
        "meta_object_id": "1997-051NY",
        "meta_epoch": "2025-12-16T08:06:03.894048",
        "meta_mean_motion": 14.38496373,
        "meta_eccentricity": 0.00135749,
        "meta_inclination": 86.3307,
        "meta_ra_of_asc_node": 18.9338,
        "meta_arg_of_pericenter": 75.0638,
        "meta_mean_anomaly": 285.2062,
        "meta_ephemeris_type": 0,
        "meta_classification_type": "U",
        "meta_norad_cat_id": 35052,
        "meta_element_set_no": 999,
        "meta_rev_at_epoch": 87327,
        "meta_bstar": 0.00017087331,
        "meta_mean_motion_dot": 5.42e-06,
        "meta_mean_motion_ddot": 0,
        "tle_line1": "1 35052U 97051NY  25350.33754507  .00000542  00000+0  17087-3 0  9992",
        "tle_line2": "2 35052  86.3307  18.9338 0013574  75.0638 285.2062 14.38496373873275"
      },
      "geometry": {
        "type": "Point",
        "coordinates": [
          18.57787030435049,
          3.281056928193486
        ]
      }
    },
    {
      "type": "Feature",
      "properties": {
        "norad_id": 35080,
        "name": "IRIDIUM 33 DEB",
        "group": "iridium-33-debris",
        "lat": -53.94343459395688,
        "lon": 44.796822657801805,
        "alt_km": 648.8256857526958,
        "timestamp": "2025-12-17T15:50:10.166411+00:00",
        "meta_object_name": "IRIDIUM 33 DEB",
        "meta_object_id": "1997-051PF",
        "meta_epoch": "2025-12-17T03:09:28.876608",
        "meta_mean_motion": 14.86585825,
        "meta_eccentricity": 0.00595754,
        "meta_inclination": 86.2077,
        "meta_ra_of_asc_node": 50.2767,
        "meta_arg_of_pericenter": 164.5881,
        "meta_mean_anomaly": 195.7176,
        "meta_ephemeris_type": 0,
        "meta_classification_type": "U",
        "meta_norad_cat_id": 35080,
        "meta_element_set_no": 999,
        "meta_rev_at_epoch": 69753,
        "meta_bstar": 0.0049196635,
        "meta_mean_motion_dot": 0.00045285,
        "meta_mean_motion_ddot": 0,
        "tle_line1": "1 35080U 97051PF  25351.13158422  .00045285  00000+0  49197-2 0  9995",
        "tle_line2": "2 35080  86.2077  50.2767 0059575 164.5881 195.7176 14.86585825697537"
      },
      "geometry": {
        "type": "Point",
        "coordinates": [
          44.796822657801805,
          -53.94343459395688
        ]
      }
    },
    {
      "type": "Feature",
      "properties": {
        "norad_id": 35297,
        "name": "IRIDIUM 33 DEB",
        "group": "iridium-33-debris",
        "lat": 28.163826190875902,
        "lon": 62.5988636451056,
        "alt_km": 741.8939932532803,
        "timestamp": "2025-12-17T15:50:10.166422+00:00",
        "meta_object_name": "IRIDIUM 33 DEB",
        "meta_object_id": "1997-051PM",
        "meta_epoch": "2025-12-16T11:27:21.167712",
        "meta_mean_motion": 14.45174956,
        "meta_eccentricity": 0.00178431,
        "meta_inclination": 86.3863,
        "meta_ra_of_asc_node": 61.1645,
        "meta_arg_of_pericenter": 129.6186,
        "meta_mean_anomaly": 230.6595,
        "meta_ephemeris_type": 0,
        "meta_classification_type": "U",
        "meta_norad_cat_id": 35297,
        "meta_element_set_no": 999,
        "meta_rev_at_epoch": 70480,
        "meta_bstar": 0.00045011402,
        "meta_mean_motion_dot": 1.598e-05,
        "meta_mean_motion_ddot": 0,
        "tle_line1": "1 35297U 97051PM  25350.47732833  .00001598  00000+0  45011-3 0  9996",
        "tle_line2": "2 35297  86.3863  61.1645 0017843 129.6186 230.6595 14.45174956704806"
      },
      "geometry": {
        "type": "Point",
        "coordinates": [
          62.5988636451056,
          28.163826190875902
        ]
      }
    },
    {
      "type": "Feature",
      "properties": {
        "norad_id": 35299,
        "name": "IRIDIUM 33 DEB",
        "group": "iridium-33-debris",
        "lat": -65.44012526275547,
        "lon": -140.78924102737565,
        "alt_km": 802.0904073902238,
        "timestamp": "2025-12-17T15:50:10.166433+00:00",
        "meta_object_name": "IRIDIUM 33 DEB",
        "meta_object_id": "1997-051PP",
        "meta_epoch": "2025-12-17T03:17:33.195264",
        "meta_mean_motion": 14.40883464,
        "meta_eccentricity": 0.00589054,
        "meta_inclination": 86.2885,
        "meta_ra_of_asc_node": 31.2723,
        "meta_arg_of_pericenter": 88.3983,
        "meta_mean_anomaly": 327.6495,
        "meta_ephemeris_type": 0,
        "meta_classification_type": "U",
        "meta_norad_cat_id": 35299,
        "meta_element_set_no": 999,
        "meta_rev_at_epoch": 86394,
        "meta_bstar": 0.00061427039,
        "meta_mean_motion_dot": 2.03e-05,
        "meta_mean_motion_ddot": 0,
        "tle_line1": "1 35299U 97051PP  25351.13718976  .00002030  00000+0  61427-3 0  9995",
        "tle_line2": "2 35299  86.2885  31.2723 0058905  88.3983 327.6495 14.40883464863949"
      },
      "geometry": {
        "type": "Point",
        "coordinates": [
          -140.78924102737565,
          -65.44012526275547
        ]
      }
    },
    {
      "type": "Feature",
      "properties": {
        "norad_id": 35480,
        "name": "IRIDIUM 33 DEB",
        "group": "iridium-33-debris",
        "lat": 36.755016466788575,
        "lon": -159.94747340989218,
        "alt_km": 717.1061966278248,
        "timestamp": "2025-12-17T15:50:10.166443+00:00",
        "meta_object_name": "IRIDIUM 33 DEB",
        "meta_object_id": "1997-051QA",
        "meta_epoch": "2025-12-15T08:30:57.118464",
        "meta_mean_motion": 14.49774703,
        "meta_eccentricity": 0.00160032,
        "meta_inclination": 86.3571,
        "meta_ra_of_asc_node": 23.7786,
        "meta_arg_of_pericenter": 97.0457,
        "meta_mean_anomaly": 263.2568,
        "meta_ephemeris_type": 0,
        "meta_classification_type": "U",
        "meta_norad_cat_id": 35480,
        "meta_element_set_no": 999,
        "meta_rev_at_epoch": 87069,
        "meta_bstar": 0.00045738518,
        "meta_mean_motion_dot": 1.785e-05,
        "meta_mean_motion_ddot": 0,
        "tle_line1": "1 35480U 97051QA  25349.35482776  .00001785  00000+0  45739-3 0  9998",
        "tle_line2": "2 35480  86.3571  23.7786 0016003  97.0457 263.2568 14.49774703870695"
      },
      "geometry": {
        "type": "Point",
        "coordinates": [
          -159.94747340989218,
          36.755016466788575
        ]
      }
    },
    {
      "type": "Feature",
      "properties": {
        "norad_id": 35484,
        "name": "IRIDIUM 33 DEB",
        "group": "iridium-33-debris",
        "lat": 81.88843220872185,
        "lon": 143.92698391262735,
        "alt_km": 545.760529743704,
        "timestamp": "2025-12-17T15:50:10.166454+00:00",
        "meta_object_name": "IRIDIUM 33 DEB",
        "meta_object_id": "1997-051QE",
        "meta_epoch": "2025-12-13T07:15:48.307680",
        "meta_mean_motion": 14.98714194,
        "meta_eccentricity": 0.00237352,
        "meta_inclination": 86.3615,
        "meta_ra_of_asc_node": 352.4822,
        "meta_arg_of_pericenter": 123.3819,
        "meta_mean_anomaly": 236.9688,
        "meta_ephemeris_type": 0,
        "meta_classification_type": "U",
        "meta_norad_cat_id": 35484,
        "meta_element_set_no": 999,
        "meta_rev_at_epoch": 62024,
        "meta_bstar": 0.0048114888,
        "meta_mean_motion_dot": 0.00058609,
        "meta_mean_motion_ddot": 0,
        "tle_line1": "1 35484U 97051QE  25347.30264245  .00058609  00000+0  48115-2 0  9991",
        "tle_line2": "2 35484  86.3615 352.4822 0023735 123.3819 236.9688 14.98714194620242"
      },
      "geometry": {
        "type": "Point",
        "coordinates": [
          143.92698391262735,
          81.88843220872185
        ]
      }
    },
    {
      "type": "Feature",
      "properties": {
        "norad_id": 35488,
        "name": "IRIDIUM 33 DEB",
        "group": "iridium-33-debris",
        "lat": -72.86373529910222,
        "lon": -73.42839314057534,
        "alt_km": 630.1623880175985,
        "timestamp": "2025-12-17T15:50:10.166465+00:00",
        "meta_object_name": "IRIDIUM 33 DEB",
        "meta_object_id": "1997-051QJ",
        "meta_epoch": "2025-12-16T20:44:04.560288",
        "meta_mean_motion": 14.83164398,
        "meta_eccentricity": 0.00293463,
        "meta_inclination": 86.3231,
        "meta_ra_of_asc_node": 298.9766,
        "meta_arg_of_pericenter": 29.4676,
        "meta_mean_anomaly": 330.8193,
        "meta_ephemeris_type": 0,
        "meta_classification_type": "U",
        "meta_norad_cat_id": 35488,
        "meta_element_set_no": 999,
        "meta_rev_at_epoch": 88327,
        "meta_bstar": 0.0013553768,
        "meta_mean_motion_dot": 0.00011171,
        "meta_mean_motion_ddot": 0,
        "tle_line1": "1 35488U 97051QJ  25350.86394167  .00011171  00000+0  13554-2 0  9999",
        "tle_line2": "2 35488  86.3231 298.9766 0029346  29.4676 330.8193 14.83164398883270"
      },
      "geometry": {
        "type": "Point",
        "coordinates": [
          -73.42839314057534,
          -72.86373529910222
        ]
      }
    }
  ]
}